[{"OBJECT_NAME":"ONEWEB-0678","OBJECT_ID":"2023-068E","EPOCH":"2026-03-09T14:25:21.789696","MEAN_MOTION":13.15547559,"ECCENTRICITY":0.000163,"INCLINATION":87.8945,"RA_OF_ASC_NODE":279.0714,"ARG_OF_PERICENTER":99.8369,"MEAN_ANOMALY":260.2945,"EPHEMERIS_TYPE":0,"CLASSIFICATION_TYPE":"U","NORAD_CAT_ID":56714,"ELEMENT_SET_NO":999,"REV_AT_EPOCH":13619,"BSTAR":2.3817e-6,"MEAN_MOTION_DOT":1.4e-7,"MEAN_MOTION_DDOT":0},{"OBJECT_NAME":"SL-14 DEB","OBJECT_ID":"1991-056F","EPOCH":"2026-03-09T20:22:57.602784","MEAN_MOTION":13.20590429,"ECCENTRICITY":0.00257751,"INCLINATION":82.5768,"RA_OF_ASC_NODE":204.0608,"ARG_OF_PERICENTER":314.9315,"MEAN_ANOMALY":44.9718,"EPHEMERIS_TYPE":0,"CLASSIFICATION_TYPE":"U","NORAD_CAT_ID":45269,"ELEMENT_SET_NO":999,"REV_AT_EPOCH":29259,"BSTAR":0.00017993766,"MEAN_MOTION_DOT":8.5e-7,"MEAN_MOTION_DDOT":0}]
